KNACKSAT-2              
1 67683U 98067XZ  26164.69872929  .00046958  00000+0  57858-3 0  9998
2 67683  51.6303 312.0209 0009611 199.6131 160.4494 15.59677165 19734
GEOSCAN 3 (RS92S3)      
1 64893U 25155T   26164.86902833  .00018296  00000+0  53525-3 0  9994
2 64893  97.4530 134.7074 0006292 170.8912 189.2446 15.35295223 80349
INNOSAT 3 (RS92S0)      
1 64894U 25155U   26164.87713648  .00036526  00000+0  81063-3 0  9994
2 64894  97.4479 136.2942 0005957 159.5509 200.5979 15.43615165 80456
