OBJECT_NAME,OBJECT_ID,EPOCH,MEAN_MOTION,ECCENTRICITY,INCLINATION,RA_OF_ASC_NODE,ARG_OF_PERICENTER,MEAN_ANOMALY,EPHEMERIS_TYPE,CLASSIFICATION_TYPE,NORAD_CAT_ID,ELEMENT_SET_NO,REV_AT_EPOCH,BSTAR,MEAN_MOTION_DOT,MEAN_MOTION_DDOT
GEOSCAN 3 (RS92S3),2025-155T,2026-06-13T20:51:24.047712,15.35295223,.0006292,97.4530,134.7074,170.8912,189.2446,0,U,64893,999,8034,.53525E-3,.18296E-3,0
INNOSAT 3 (RS92S0),2025-155U,2026-06-13T21:03:04.591872,15.43615165,.0005957,97.4479,136.2942,159.5509,200.5979,0,U,64894,999,8045,.81063E-3,.36526E-3,0
KNACKSAT-2,1998-067XZ,2026-06-13T16:46:10.210656,15.59677165,.0009611,51.6303,312.0209,199.6131,160.4494,0,U,67683,999,1973,.57858E-3,.46958E-3,0
